[{"OBJECT_NAME":"STARLINK-30567","OBJECT_ID":"2023-158S","EPOCH":"2026-03-09T05:08:04.180992","MEAN_MOTION":15.27587017,"ECCENTRICITY":9.171e-5,"INCLINATION":43.0022,"RA_OF_ASC_NODE":30.0257,"ARG_OF_PERICENTER":296.0738,"MEAN_ANOMALY":64.0019,"EPHEMERIS_TYPE":0,"CLASSIFICATION_TYPE":"U","NORAD_CAT_ID":58067,"ELEMENT_SET_NO":999,"REV_AT_EPOCH":13349,"BSTAR":4.8509402e-5,"MEAN_MOTION_DOT":1.073e-5,"MEAN_MOTION_DDOT":0},{"OBJECT_NAME":"UHETSAT","OBJECT_ID":"2023-185E","EPOCH":"2026-03-09T22:39:26.455680","MEAN_MOTION":15.29797662,"ECCENTRICITY":0.00118435,"INCLINATION":97.3584,"RA_OF_ASC_NODE":137.3576,"ARG_OF_PERICENTER":307.7346,"MEAN_ANOMALY":52.2821,"EPHEMERIS_TYPE":0,"CLASSIFICATION_TYPE":"U","NORAD_CAT_ID":58466,"ELEMENT_SET_NO":999,"REV_AT_EPOCH":12611,"BSTAR":0.00030513019,"MEAN_MOTION_DOT":8.749e-5,"MEAN_MOTION_DDOT":0}]
